{
  "type": "FeatureCollection",
  "features": [
    {
      "type": "Feature",
      "properties": {
        "norad_id": 39773,
        "name": "EUTELSAT 3B",
        "group": "eutelsat",
        "lat": 0.07178533337037345,
        "lon": 58.73274492367562,
        "alt_km": 35805.94490042246,
        "timestamp": "2025-12-06T22:38:42.406302+00:00",
        "meta_object_name": "EUTELSAT 3B",
        "meta_object_id": "2014-030A",
        "meta_epoch": "2025-12-06T08:32:41.505216",
        "meta_mean_motion": 1.00271568,
        "meta_eccentricity": 0.00047329,
        "meta_inclination": 0.0649,
        "meta_ra_of_asc_node": 10.0268,
        "meta_arg_of_pericenter": 220.9183,
        "meta_mean_anomaly": 335.7222,
        "meta_ephemeris_type": 0,
        "meta_classification_type": "U",
        "meta_norad_cat_id": 39773,
        "meta_element_set_no": 999,
        "meta_rev_at_epoch": 4213,
        "meta_bstar": 0,
        "meta_mean_motion_dot": 2.7e-07,
        "meta_mean_motion_ddot": 0,
        "tle_line1": "1 39773U 14030A   25340.35603594  .00000027  00000+0  00000+0 0  9993",
        "tle_line2": "2 39773   0.0649  10.0268 0004732 220.9183 335.7222  1.00271568 42132"
      },
      "geometry": {
        "type": "Point",
        "coordinates": [
          58.73274492367562,
          0.07178533337037345
        ]
      }
    },
    {
      "type": "Feature",
      "properties": {
        "norad_id": 40425,
        "name": "EUTELSAT 115 WEST B",
        "group": "eutelsat",
        "lat": 0.008699969834938426,
        "lon": -59.23242854385712,
        "alt_km": 35786.91749527878,
        "timestamp": "2025-12-06T22:38:42.406313+00:00",
        "meta_object_name": "EUTELSAT 115 WEST B",
        "meta_object_id": "2015-010B",
        "meta_epoch": "2025-12-06T10:47:28.419072",
        "meta_mean_motion": 1.00271104,
        "meta_eccentricity": 3.126e-05,
        "meta_inclination": 0.007,
        "meta_ra_of_asc_node": 143.6476,
        "meta_arg_of_pericenter": 276.9333,
        "meta_mean_anomaly": 61.9058,
        "meta_ephemeris_type": 0,
        "meta_classification_type": "U",
        "meta_norad_cat_id": 40425,
        "meta_element_set_no": 999,
        "meta_rev_at_epoch": 3946,
        "meta_bstar": 0,
        "meta_mean_motion_dot": -1.8e-07,
        "meta_mean_motion_ddot": 0,
        "tle_line1": "1 40425U 15010B   25340.44963448 -.00000018  00000+0  00000+0 0  9996",
        "tle_line2": "2 40425   0.0070 143.6476 0000312 276.9333  61.9058  1.00271104 39461"
      },
      "geometry": {
        "type": "Point",
        "coordinates": [
          -59.23242854385712,
          0.008699969834938426
        ]
      }
    },
    {
      "type": "Feature",
      "properties": {
        "norad_id": 40875,
        "name": "EUTELSAT 8 WEST B",
        "group": "eutelsat",
        "lat": 0.07497422024513473,
        "lon": 47.67788357662837,
        "alt_km": 35801.30077611687,
        "timestamp": "2025-12-06T22:38:42.406325+00:00",
        "meta_object_name": "EUTELSAT 8 WEST B",
        "meta_object_id": "2015-039B",
        "meta_epoch": "2025-12-06T10:12:01.990656",
        "meta_mean_motion": 1.00271555,
        "meta_eccentricity": 0.00041205,
        "meta_inclination": 0.0646,
        "meta_ra_of_asc_node": 353.9756,
        "meta_arg_of_pericenter": 263.3818,
        "meta_mean_anomaly": 323.1281,
        "meta_ephemeris_type": 0,
        "meta_classification_type": "U",
        "meta_norad_cat_id": 40875,
        "meta_element_set_no": 999,
        "meta_rev_at_epoch": 3772,
        "meta_bstar": 0,
        "meta_mean_motion_dot": -5.8e-07,
        "meta_mean_motion_ddot": 0,
        "tle_line1": "1 40875U 15039B   25340.42502304 -.00000058  00000+0  00000+0 0  9998",
        "tle_line2": "2 40875   0.0646 353.9756 0004120 263.3818 323.1281  1.00271555 37723"
      },
      "geometry": {
        "type": "Point",
        "coordinates": [
          47.67788357662837,
          0.07497422024513473
        ]
      }
    },
    {
      "type": "Feature",
      "properties": {
        "norad_id": 41310,
        "name": "EUTELSAT 9B",
        "group": "eutelsat",
        "lat": 0.0117233230490973,
        "lon": 64.66100505913661,
        "alt_km": 35805.48856346384,
        "timestamp": "2025-12-06T22:38:42.406336+00:00",
        "meta_object_name": "EUTELSAT 9B",
        "meta_object_id": "2016-005A",
        "meta_epoch": "2025-12-06T11:59:36.686688",
        "meta_mean_motion": 1.00272389,
        "meta_eccentricity": 0.00050169,
        "meta_inclination": 0.074,
        "meta_ra_of_asc_node": 75.8204,
        "meta_arg_of_pericenter": 191.5718,
        "meta_mean_anomaly": 357.0441,
        "meta_ephemeris_type": 0,
        "meta_classification_type": "U",
        "meta_norad_cat_id": 41310,
        "meta_element_set_no": 999,
        "meta_rev_at_epoch": 3618,
        "meta_bstar": 0,
        "meta_mean_motion_dot": 6.9e-07,
        "meta_mean_motion_ddot": 0,
        "tle_line1": "1 41310U 16005A   25340.49973017  .00000069  00000+0  00000+0 0  9998",
        "tle_line2": "2 41310   0.0740  75.8204 0005016 191.5718 357.0441  1.00272389 36186"
      },
      "geometry": {
        "type": "Point",
        "coordinates": [
          64.66100505913661,
          0.0117233230490973
        ]
      }
    },
    {
      "type": "Feature",
      "properties": {
        "norad_id": 41382,
        "name": "EUTELSAT 65 WEST A",
        "group": "eutelsat",
        "lat": 0.0005319653804007106,
        "lon": -9.53749565581152,
        "alt_km": 35785.90982153358,
        "timestamp": "2025-12-06T22:38:42.406348+00:00",
        "meta_object_name": "EUTELSAT 65 WEST A",
        "meta_object_id": "2016-014A",
        "meta_epoch": "2025-12-06T11:13:07.483008",
        "meta_mean_motion": 1.00269627,
        "meta_eccentricity": 0.00028754,
        "meta_inclination": 0.0495,
        "meta_ra_of_asc_node": 354.8279,
        "meta_arg_of_pericenter": 269.5938,
        "meta_mean_anomaly": 274.157,
        "meta_ephemeris_type": 0,
        "meta_classification_type": "U",
        "meta_norad_cat_id": 41382,
        "meta_element_set_no": 999,
        "meta_rev_at_epoch": 3560,
        "meta_bstar": 0,
        "meta_mean_motion_dot": -2.69e-06,
        "meta_mean_motion_ddot": 0,
        "tle_line1": "1 41382U 16014A   25340.46744772 -.00000269  00000+0  00000+0 0  9991",
        "tle_line2": "2 41382   0.0495 354.8279 0002875 269.5938 274.1570  1.00269627 35603"
      },
      "geometry": {
        "type": "Point",
        "coordinates": [
          -9.53749565581152,
          0.0005319653804007106
        ]
      }
    },
    {
      "type": "Feature",
      "properties": {
        "norad_id": 41589,
        "name": "EUTELSAT 117 WEST B",
        "group": "eutelsat",
        "lat": 0.007541453401194808,
        "lon": -61.35824261682013,
        "alt_km": 35786.47979929133,
        "timestamp": "2025-12-06T22:38:42.406359+00:00",
        "meta_object_name": "EUTELSAT 117 WEST B",
        "meta_object_id": "2016-038B",
        "meta_epoch": "2025-12-06T11:23:47.617152",
        "meta_mean_motion": 1.00272504,
        "meta_eccentricity": 1.795e-05,
        "meta_inclination": 0.0132,
        "meta_ra_of_asc_node": 172.9606,
        "meta_arg_of_pericenter": 270.2421,
        "meta_mean_anomaly": 46.2587,
        "meta_ephemeris_type": 0,
        "meta_classification_type": "U",
        "meta_norad_cat_id": 41589,
        "meta_element_set_no": 999,
        "meta_rev_at_epoch": 3473,
        "meta_bstar": 0,
        "meta_mean_motion_dot": -5e-08,
        "meta_mean_motion_ddot": 0,
        "tle_line1": "1 41589U 16038B   25340.47485668 -.00000005  00000+0  00000+0 0  9991",
        "tle_line2": "2 41589   0.0132 172.9606 0000179 270.2421  46.2587  1.00272504 34731"
      },
      "geometry": {
        "type": "Point",
        "coordinates": [
          -61.35824261682013,
          0.007541453401194808
        ]
      }
    },
    {
      "type": "Feature",
      "properties": {
        "norad_id": 42741,
        "name": "EUTELSAT 172B",
        "group": "eutelsat",
        "lat": -0.0026453084839493605,
        "lon": -132.35773221859426,
        "alt_km": 35786.355053096544,
        "timestamp": "2025-12-06T22:38:42.406371+00:00",
        "meta_object_name": "EUTELSAT 172B",
        "meta_object_id": "2017-029B",
        "meta_epoch": "2025-12-06T14:34:38.434656",
        "meta_mean_motion": 1.00270128,
        "meta_eccentricity": 2.364e-05,
        "meta_inclination": 0.0108,
        "meta_ra_of_asc_node": 86.2078,
        "meta_arg_of_pericenter": 221.3143,
        "meta_mean_anomaly": 158.7869,
        "meta_ephemeris_type": 0,
        "meta_classification_type": "U",
        "meta_norad_cat_id": 42741,
        "meta_element_set_no": 999,
        "meta_rev_at_epoch": 3180,
        "meta_bstar": 0,
        "meta_mean_motion_dot": 1e-08,
        "meta_mean_motion_ddot": 0,
        "tle_line1": "1 42741U 17029B   25340.60738929  .00000001  00000+0  00000+0 0  9994",
        "tle_line2": "2 42741   0.0108  86.2078 0000236 221.3143 158.7869  1.00270128 31804"
      },
      "geometry": {
        "type": "Point",
        "coordinates": [
          -132.35773221859426,
          -0.0026453084839493605
        ]
      }
    }
  ]
}